CCSDS_OMM_VERS = 2.0
CREATION_DATE  = 
ORIGINATOR     = 

OBJECT_NAME    = SL-14 R/B
OBJECT_ID      = 1986-046B
CENTER_NAME    = EARTH
REF_FRAME      = TEME
TIME_SYSTEM    = UTC
MEAN_ELEMENT_THEORY = SGP/SGP4

EPOCH          = 2025-11-26T01:50:09.370176
MEAN_MOTION    = 14.85459559
ECCENTRICITY   = .00223939
INCLINATION    = 82.4818
RA_OF_ASC_NODE = 178.0506
ARG_OF_PERICENTER = 207.3038
MEAN_ANOMALY   = 152.7003

EPHEMERIS_TYPE = 0
CLASSIFICATION_TYPE = U
NORAD_CAT_ID   = 16792
ELEMENT_SET_NO = 999
REV_AT_EPOCH   = 11102
BSTAR          = .61609619E-4
MEAN_MOTION_DOT = .557E-5
MEAN_MOTION_DDOT = 0

CCSDS_OMM_VERS = 2.0
CREATION_DATE  = 
ORIGINATOR     = 

OBJECT_NAME    = SL-14 R/B
OBJECT_ID      = 1986-055B
CENTER_NAME    = EARTH
REF_FRAME      = TEME
TIME_SYSTEM    = UTC
MEAN_ELEMENT_THEORY = SGP/SGP4

EPOCH          = 2025-11-26T05:17:24.474624
MEAN_MOTION    = 14.85506246
ECCENTRICITY   = .00179668
INCLINATION    = 82.5218
RA_OF_ASC_NODE = 223.8930
ARG_OF_PERICENTER = 318.4276
MEAN_ANOMALY   = 158.4884

EPHEMERIS_TYPE = 0
CLASSIFICATION_TYPE = U
NORAD_CAT_ID   = 16882
ELEMENT_SET_NO = 999
REV_AT_EPOCH   = 10400
BSTAR          = .73947032E-4
MEAN_MOTION_DOT = .664E-5
MEAN_MOTION_DDOT = 0

CCSDS_OMM_VERS = 2.0
CREATION_DATE  = 
ORIGINATOR     = 

OBJECT_NAME    = AJISAI (EGS)
OBJECT_ID      = 1986-061A
CENTER_NAME    = EARTH
REF_FRAME      = TEME
TIME_SYSTEM    = UTC
MEAN_ELEMENT_THEORY = SGP/SGP4

EPOCH          = 2025-11-26T12:13:26.030784
MEAN_MOTION    = 12.44514089
ECCENTRICITY   = .0011238
INCLINATION    = 50.0109
RA_OF_ASC_NODE = 50.6237
ARG_OF_PERICENTER = 25.1329
MEAN_ANOMALY   = 351.7965

EPHEMERIS_TYPE = 0
CLASSIFICATION_TYPE = U
NORAD_CAT_ID   = 16908
ELEMENT_SET_NO = 999
REV_AT_EPOCH   = 45515
BSTAR          = .66637E-5
MEAN_MOTION_DOT = -.97E-6
MEAN_MOTION_DDOT = 0

CCSDS_OMM_VERS = 2.0
CREATION_DATE  = 
ORIGINATOR     = 

OBJECT_NAME    = COSMOS 1812
OBJECT_ID      = 1987-003A
CENTER_NAME    = EARTH
REF_FRAME      = TEME
TIME_SYSTEM    = UTC
MEAN_ELEMENT_THEORY = SGP/SGP4

EPOCH          = 2025-11-26T09:17:15.749376
MEAN_MOTION    = 15.71887185
ECCENTRICITY   = .00066076
INCLINATION    = 82.4879
RA_OF_ASC_NODE = 309.6691
ARG_OF_PERICENTER = 108.9028
MEAN_ANOMALY   = 251.2951

EPHEMERIS_TYPE = 0
CLASSIFICATION_TYPE = U
NORAD_CAT_ID   = 17295
ELEMENT_SET_NO = 999
REV_AT_EPOCH   = 12808
BSTAR          = .62996635E-3
MEAN_MOTION_DOT = .82516E-3
MEAN_MOTION_DDOT = 0

CCSDS_OMM_VERS = 2.0
CREATION_DATE  = 
ORIGINATOR     = 

OBJECT_NAME    = SL-14 R/B
OBJECT_ID      = 1987-024B
CENTER_NAME    = EARTH
REF_FRAME      = TEME
TIME_SYSTEM    = UTC
MEAN_ELEMENT_THEORY = SGP/SGP4

EPOCH          = 2025-11-26T08:23:16.006848
MEAN_MOTION    = 14.86000401
ECCENTRICITY   = .00168983
INCLINATION    = 82.5286
RA_OF_ASC_NODE = 189.8505
ARG_OF_PERICENTER = 240.9690
MEAN_ANOMALY   = 118.9834

EPHEMERIS_TYPE = 0
CLASSIFICATION_TYPE = U
NORAD_CAT_ID   = 17567
ELEMENT_SET_NO = 999
REV_AT_EPOCH   = 7278
BSTAR          = .61563029E-4
MEAN_MOTION_DOT = .563E-5
MEAN_MOTION_DDOT = 0

CCSDS_OMM_VERS = 2.0
CREATION_DATE  = 
ORIGINATOR     = 

OBJECT_NAME    = COSMOS 1833
OBJECT_ID      = 1987-027A
CENTER_NAME    = EARTH
REF_FRAME      = TEME
TIME_SYSTEM    = UTC
MEAN_ELEMENT_THEORY = SGP/SGP4

EPOCH          = 2025-11-26T01:57:51.088320
MEAN_MOTION    = 14.13017951
ECCENTRICITY   = .0021841
INCLINATION    = 70.9129
RA_OF_ASC_NODE = 183.7954
ARG_OF_PERICENTER = 355.1593
MEAN_ANOMALY   = 4.9314

EPHEMERIS_TYPE = 0
CLASSIFICATION_TYPE = U
NORAD_CAT_ID   = 17589
ELEMENT_SET_NO = 999
REV_AT_EPOCH   = 99567
BSTAR          = -.9258566E-5
MEAN_MOTION_DOT = -.65E-6
MEAN_MOTION_DDOT = 0

CCSDS_OMM_VERS = 2.0
CREATION_DATE  = 
ORIGINATOR     = 

OBJECT_NAME    = SL-16 R/B
OBJECT_ID      = 1987-027B
CENTER_NAME    = EARTH
REF_FRAME      = TEME
TIME_SYSTEM    = UTC
MEAN_ELEMENT_THEORY = SGP/SGP4

EPOCH          = 2025-11-26T11:56:05.072352
MEAN_MOTION    = 14.17148956
ECCENTRICITY   = .0007307
INCLINATION    = 71.0005
RA_OF_ASC_NODE = 133.9433
ARG_OF_PERICENTER = 276.3433
MEAN_ANOMALY   = 83.6858

EPHEMERIS_TYPE = 0
CLASSIFICATION_TYPE = U
NORAD_CAT_ID   = 17590
ELEMENT_SET_NO = 999
REV_AT_EPOCH   = 72
BSTAR          = .15374E-3
MEAN_MOTION_DOT = .262E-5
MEAN_MOTION_DDOT = 0

CCSDS_OMM_VERS = 2.0
CREATION_DATE  = 
ORIGINATOR     = 

OBJECT_NAME    = SL-14 R/B
OBJECT_ID      = 1987-038B
CENTER_NAME    = EARTH
REF_FRAME      = TEME
TIME_SYSTEM    = UTC
MEAN_ELEMENT_THEORY = SGP/SGP4

EPOCH          = 2025-11-26T10:13:38.826048
MEAN_MOTION    = 14.85238551
ECCENTRICITY   = .00202545
INCLINATION    = 82.5031
RA_OF_ASC_NODE = 34.0648
ARG_OF_PERICENTER = 142.5959
MEAN_ANOMALY   = 217.6671

EPHEMERIS_TYPE = 0
CLASSIFICATION_TYPE = U
NORAD_CAT_ID   = 17912
ELEMENT_SET_NO = 999
REV_AT_EPOCH   = 6390
BSTAR          = .65382314E-4
MEAN_MOTION_DOT = .587E-5
MEAN_MOTION_DDOT = 0

CCSDS_OMM_VERS = 2.0
CREATION_DATE  = 
ORIGINATOR     = 

OBJECT_NAME    = COSMOS 1844
OBJECT_ID      = 1987-041A
CENTER_NAME    = EARTH
REF_FRAME      = TEME
TIME_SYSTEM    = UTC
MEAN_ELEMENT_THEORY = SGP/SGP4

EPOCH          = 2025-11-26T05:26:18.439584
MEAN_MOTION    = 14.14528424
ECCENTRICITY   = .00307947
INCLINATION    = 70.8997
RA_OF_ASC_NODE = 252.3984
ARG_OF_PERICENTER = 182.8072
MEAN_ANOMALY   = 177.2883

EPHEMERIS_TYPE = 0
CLASSIFICATION_TYPE = U
NORAD_CAT_ID   = 17973
ELEMENT_SET_NO = 999
REV_AT_EPOCH   = 98895
BSTAR          = .21912064E-4
MEAN_MOTION_DOT = -.6E-7
MEAN_MOTION_DDOT = 0

CCSDS_OMM_VERS = 2.0
CREATION_DATE  = 
ORIGINATOR     = 

OBJECT_NAME    = SL-14 R/B
OBJECT_ID      = 1987-055B
CENTER_NAME    = EARTH
REF_FRAME      = TEME
TIME_SYSTEM    = UTC
MEAN_ELEMENT_THEORY = SGP/SGP4

EPOCH          = 2025-11-26T10:06:05.804064
MEAN_MOTION    = 14.85495086
ECCENTRICITY   = .0020597
INCLINATION    = 82.4993
RA_OF_ASC_NODE = 86.3662
ARG_OF_PERICENTER = 359.2747
MEAN_ANOMALY   = 0.8435

EPHEMERIS_TYPE = 0
CLASSIFICATION_TYPE = U
NORAD_CAT_ID   = 18153
ELEMENT_SET_NO = 999
REV_AT_EPOCH   = 5460
BSTAR          = .7376E-4
MEAN_MOTION_DOT = .663E-5
MEAN_MOTION_DDOT = 0

CCSDS_OMM_VERS = 2.0
CREATION_DATE  = 
ORIGINATOR     = 

OBJECT_NAME    = COSMOS 1867
OBJECT_ID      = 1987-060A
CENTER_NAME    = EARTH
REF_FRAME      = TEME
TIME_SYSTEM    = UTC
MEAN_ELEMENT_THEORY = SGP/SGP4

EPOCH          = 2025-11-26T11:09:04.396608
MEAN_MOTION    = 14.31482403
ECCENTRICITY   = .001363
INCLINATION    = 65.0103
RA_OF_ASC_NODE = 235.7782
ARG_OF_PERICENTER = 269.4658
MEAN_ANOMALY   = 90.4864

EPHEMERIS_TYPE = 0
CLASSIFICATION_TYPE = U
NORAD_CAT_ID   = 18187
ELEMENT_SET_NO = 999
REV_AT_EPOCH   = 516
BSTAR          = .38804E-4
MEAN_MOTION_DOT = .3E-7
MEAN_MOTION_DDOT = 0

CCSDS_OMM_VERS = 2.0
CREATION_DATE  = 
ORIGINATOR     = 

OBJECT_NAME    = COSMOS 1892
OBJECT_ID      = 1987-088A
CENTER_NAME    = EARTH
REF_FRAME      = TEME
TIME_SYSTEM    = UTC
MEAN_ELEMENT_THEORY = SGP/SGP4

EPOCH          = 2025-11-26T12:47:42.439776
MEAN_MOTION    = 16.15683909
ECCENTRICITY   = .0005547
INCLINATION    = 82.4623
RA_OF_ASC_NODE = 61.9231
ARG_OF_PERICENTER = 266.1423
MEAN_ANOMALY   = 93.9229

EPHEMERIS_TYPE = 0
CLASSIFICATION_TYPE = U
NORAD_CAT_ID   = 18421
ELEMENT_SET_NO = 999
REV_AT_EPOCH   = 8872
BSTAR          = .74303E-3
MEAN_MOTION_DOT = .1003673E-1
MEAN_MOTION_DDOT = .67395E-3

