SL-14 R/B               
1 16792U 86046B   25330.07649734  .00000557  00000+0  61610-4 0  9996
2 16792  82.4818 178.0506 0022393 207.3038 152.7003 14.85459559111025
SL-14 R/B               
1 16882U 86055B   25330.22042216  .00000664  00000+0  73947-4 0  9990
2 16882  82.5218 223.8930 0017966 318.4276 158.4884 14.85506246104004
AJISAI (EGS)            
1 16908U 86061A   25330.50932906 -.00000097  00000+0  66637-5 0  9991
2 16908  50.0109  50.6237 0011238  25.1329 351.7965 12.44514089455155
COSMOS 1812             
1 17295U 87003A   25330.38698784  .00082516  00000+0  62997-3 0  9995
2 17295  82.4879 309.6691 0006607 108.9028 251.2951 15.71887185128080
SL-14 R/B               
1 17567U 87024B   25330.34949082  .00000563  00000+0  61563-4 0  9997
2 17567  82.5286 189.8505 0016898 240.9690 118.9834 14.86000401 72789
COSMOS 1833             
1 17589U 87027A   25330.08184130 -.00000065  00000+0 -92586-5 0  9999
2 17589  70.9129 183.7954 0021841 355.1593   4.9314 14.13017951995673
SL-16 R/B               
1 17590U 87027B   25330.49728093  .00000262  00000+0  15374-3 0  9993
2 17590  71.0005 133.9433 0007307 276.3433  83.6858 14.17148956   721
SL-14 R/B               
1 17912U 87038B   25330.42614382  .00000587  00000+0  65382-4 0  9996
2 17912  82.5031  34.0648 0020254 142.5959 217.6671 14.85238551 63904
COSMOS 1844             
1 17973U 87041A   25330.22660231 -.00000006  00000+0  21912-4 0  9997
2 17973  70.8997 252.3984 0030794 182.8072 177.2883 14.14528424988953
SL-14 R/B               
1 18153U 87055B   25330.42090051  .00000663  00000+0  73760-4 0  9998
2 18153  82.4993  86.3662 0020597 359.2747   0.8435 14.85495086 54601
COSMOS 1867             
1 18187U 87060A   25330.46463422  .00000003  00000+0  38804-4 0  9999
2 18187  65.0103 235.7782 0013630 269.4658  90.4864 14.31482403  5162
COSMOS 1892             
1 18421U 87088A   25330.53313009  .01003673  67395-3  74303-3 0  9997
2 18421  82.4623  61.9231 0005547 266.1423  93.9229 16.15683909 88727
